NORAD_CAT_ID,OBJECT_NAME,OBJECT_TYPE,EPOCH,MEAN_MOTION,ECCENTRICITY,INCLINATION,RA_OF_ASC_NODE,ARG_OF_PERICENTER,MEAN_ANOMALY,BSTAR,MEAN_MOTION_DOT,MEAN_MOTION_DDOT,TLE_LINE0,TLE_LINE1,TLE_LINE2,SEMIMAJOR_AXIS,PERIOD,APOGEE,PERIGEE,DECAYED
49135.0,STARLINK-3073,PAYLOAD,2024-02-22 20:18:21,14.98330868,0.0002945,70.001,334.9727,267.5443,92.5379,-8.1253e-06,-1.9e-06,0.0,0 STARLINK-3073,1 49135U 21082F   24053.84607742 -.00000190  00000-0 -81253-5 0  9993,2 49135  70.0010 334.9727 0002945 267.5443  92.5379 14.98330868135259,6950.19,96.107,574.102,570.008,0.0
49135.0,STARLINK-3073,PAYLOAD,2024-02-22 21:54:29,14.9833234,0.0002861,70.0012,334.8048,267.6329,92.4502,4.3669e-06,-4.1e-07,0.0,0 STARLINK-3073,1 49135U 21082F   24053.91283622 -.00000041  00000-0  43669-5 0  9991,2 49135  70.0012 334.8048 0002861 267.6329  92.4502 14.98332340135262,6950.186,96.107,574.039,570.062,0.0
49135.0,STARLINK-3073,PAYLOAD,2024-02-23 04:19:00,14.98338401,0.00028,70.0013,334.1315,266.647,93.4369,4.1879e-05,4.07e-06,0.0,0 STARLINK-3073,1 49135U 21082F   24054.17987082  .00000407  00000-0  41879-4 0  9996,2 49135  70.0013 334.1315 0002800 266.6470  93.4369 14.98338401135303,6950.167,96.106,573.978,570.086,0.0
49135.0,STARLINK-3073,PAYLOAD,2024-02-23 12:19:41,14.98337355,0.0002232,70.0028,333.2897,278.7309,81.3597,-4.1548e-05,-5.89e-06,0.0,0 STARLINK-3073,1 49135U 21082F   24054.51367469 -.00000589  00000-0 -41548-4 0  9991,2 49135  70.0028 333.2897 0002232 278.7309  81.3597 14.98337355135359,6950.17,96.107,573.586,570.484,0.0
49135.0,STARLINK-3073,PAYLOAD,2024-02-23 20:20:22,14.98319301,0.0002732,70.0012,332.4473,264.4796,95.6051,0.00015698,1.78e-05,0.0,0 STARLINK-3073,1 49135U 21082F   24054.84747941  .00001780  00000-0  15698-3 0  9992,2 49135  70.0012 332.4473 0002732 264.4796  95.6051 14.98319301135400,6950.226,96.108,573.99,570.192,0.0
49135.0,STARLINK-3073,PAYLOAD,2024-02-23 21:56:30,14.98323904,0.0002704,70.0013,332.2793,265.4866,94.5984,8.4128e-05,9.11e-06,0.0,0 STARLINK-3073,1 49135U 21082F   24054.91423846  .00000911  00000-0  84128-4 0  9995,2 49135  70.0013 332.2793 0002704 265.4866  94.5984 14.98323904135410,6950.212,96.107,573.956,570.197,0.0
49135.0,STARLINK-3073,PAYLOAD,2024-02-24 04:21:02,14.98327935,0.0002702,70.0012,331.6058,264.7262,95.3588,9.596e-05,1.052e-05,0.0,0 STARLINK-3073,1 49135U 21082F   24055.18127627  .00001052  00000-0  95960-4 0  9996,2 49135  70.0012 331.6058 0002702 264.7262  95.3588 14.98327935135457,6950.199,96.107,573.942,570.186,0.0
49135.0,STARLINK-3073,PAYLOAD,2024-02-25 04:23:02,14.98337675,0.0002582,70.0016,329.0812,266.7751,93.3112,5.5128e-05,5.65e-06,0.0,0 STARLINK-3073,1 49135U 21082F   24056.18267066  .00000565  00000-0  55128-4 0  9999,2 49135  70.0016 329.0812 0002582 266.7751  93.3112 14.98337675135601,6950.169,96.107,573.829,570.24,0.0
49135.0,STARLINK-3073,PAYLOAD,2024-02-25 22:00:31,14.98333426,0.0002605,70.0013,327.2298,267.3046,92.7815,8.0304e-05,8.65e-06,0.0,0 STARLINK-3073,1 49135U 21082F   24056.91703031  .00000865  00000-0  80304-4 0  9994,2 49135  70.0013 327.2298 0002605 267.3046  92.7815 14.98333426135711,6950.182,96.107,573.858,570.237,0.0
49135.0,STARLINK-3073,PAYLOAD,2024-02-26 04:25:03,14.9833721,0.0002562,70.0015,326.5572,261.2667,98.8202,0.00012052,1.346e-05,0.0,0 STARLINK-3073,1 49135U 21082F   24057.18406593  .00001346  00000-0  12052-3 0  9996,2 49135  70.0015 326.5572 0002562 261.2667  98.8202 14.98337210135750,6950.171,96.107,573.816,570.255,0.0
49135.0,STARLINK-3073,PAYLOAD,2024-02-26 18:50:16,14.98330787,0.0001997,70.0049,325.0408,273.6335,86.4595,1.0652e-05,3.4e-07,0.0,0 STARLINK-3073,1 49135U 21082F   24057.78491395  .00000034  00000-0  10652-4 0  9994,2 49135  70.0049 325.0408 0001997 273.6335  86.4595 14.98330787135849,6950.19,96.107,573.443,570.668,0.0
49135.0,STARLINK-3073,PAYLOAD,2024-02-26 22:02:32,14.98328348,0.0002583,70.0012,324.7052,268.8959,91.1904,-6.5246e-05,-8.71e-06,0.0,0 STARLINK-3073,1 49135U 21082F   24057.91843642 -.00000871  00000-0 -65246-4 0  9995,2 49135  70.0012 324.7052 0002583 268.8959  91.1904 14.98328348135869,6950.198,96.107,573.858,570.268,0.0
49135.0,STARLINK-3073,PAYLOAD,2024-02-27 10:51:37,14.98331218,0.0002603,70.0012,323.359,267.3081,92.778,-2.3351e-05,-3.72e-06,0.0,0 STARLINK-3073,1 49135U 21082F   24058.45251339 -.00000372  00000-0 -23351-4 0  9998,2 49135  70.0012 323.3590 0002603 267.3081  92.7780 14.98331218135942,6950.189,96.107,573.863,570.245,0.0
49135.0,STARLINK-3073,PAYLOAD,2024-02-27 20:28:25,14.98331095,0.0002833,70.0007,322.3497,266.715,93.3685,-3.128e-05,-4.66e-06,0.0,0 STARLINK-3073,1 49135U 21082F   24058.85307353 -.00000466  00000-0 -31280-4 0  9994,2 49135  70.0007 322.3497 0002833 266.7150  93.3685 14.98331095136008,6950.19,96.107,574.023,570.086,0.0
49135.0,STARLINK-3073,PAYLOAD,2024-02-27 22:04:33,14.98331356,0.0002977,70.0005,322.1815,272.2755,87.8063,-2.9255e-05,-4.42e-06,0.0,0 STARLINK-3073,1 49135U 21082F   24058.91983351 -.00000442  00000-0 -29255-4 0  9992,2 49135  70.0005 322.1815 0002977 272.2755  87.8063 14.98331356136019,6950.189,96.107,574.123,569.985,0.0
49135.0,STARLINK-3073,PAYLOAD,2024-02-28 10:53:37,14.98333194,0.0002845,70.0005,320.8339,274.8634,85.22,-7.5966e-05,-9.99e-06,0.0,0 STARLINK-3073,1 49135U 21082F   24059.45391179 -.00000999  00000-0 -75966-4 0  9990,2 49135  70.0005 320.8339 0002845 274.8634  85.2200 14.98333194136098,6950.183,96.107,574.025,570.071,0.0
49135.0,STARLINK-3073,PAYLOAD,2024-02-28 20:30:26,14.98324599,0.0002819,70.0004,319.8239,272.3686,87.715,4.9763e-05,5.01e-06,0.0,0 STARLINK-3073,1 49135U 21082F   24059.85447541  .00000501  00000-0  49763-4 0  9992,2 49135  70.0004 319.8239 0002819 272.3686  87.7150 14.98324599136152,6950.21,96.107,574.034,570.115,0.0
49135.0,STARLINK-3073,PAYLOAD,2024-02-28 22:06:34,14.98324002,0.0002797,70.0006,319.6557,273.891,86.1929,4.6e-05,4.56e-06,0.0,0 STARLINK-3073,1 49135U 21082F   24059.92123644  .00000456  00000-0  46000-4 0  9995,2 49135  70.0006 319.6557 0002797 273.8910  86.1929 14.98324002136163,6950.211,96.107,574.02,570.132,0.0
49135.0,STARLINK-3073,PAYLOAD,2024-02-29 10:55:39,14.98329837,0.0002825,70.0007,318.3097,279.7669,80.3171,2.9018e-05,2.53e-06,0.0,0 STARLINK-3073,1 49135U 21082F   24060.45531457  .00000253  00000-0  29018-4 0  9995,2 49135  70.0007 318.3097 0002825 279.7669  80.3171 14.98329837136242,6950.193,96.107,574.022,570.095,0.0
49135.0,STARLINK-3073,PAYLOAD,2024-02-29 20:32:27,14.98332524,0.0002847,70.0007,317.2998,272.743,87.3403,6.6142e-05,6.96e-06,0.0,0 STARLINK-3073,1 49135U 21082F   24060.85587108  .00000696  00000-0  66142-4 0  9993,2 49135  70.0007 317.2998 0002847 272.7430  87.3403 14.98332524136302,6950.185,96.107,574.029,570.071,0.0
49135.0,STARLINK-3073,PAYLOAD,2024-02-29 22:08:35,14.98332412,0.0002851,70.0007,317.1315,272.7458,87.3375,6.4382e-05,6.75e-06,0.0,0 STARLINK-3073,1 49135U 21082F   24060.92263116  .00000675  00000-0  64382-4 0  9992,2 49135  70.0007 317.1315 0002851 272.7458  87.3375 14.98332412136314,6950.185,96.107,574.032,570.069,0.0
49135.0,STARLINK-3073,PAYLOAD,2024-03-01 02:56:59,14.98335774,0.0002854,70.0006,316.6258,270.9805,89.1027,4.8583e-05,4.87e-06,0.0,0 STARLINK-3073,1 49135U 21082F   24061.12290877  .00000487  00000-0  48583-4 0  9995,2 49135  70.0006 316.6258 0002854 270.9805  89.1027 14.98335774136343,6950.175,96.107,574.024,570.056,0.0
49135.0,STARLINK-3073,PAYLOAD,2024-03-01 20:34:28,14.98330145,0.0002867,70.0007,314.7744,270.9846,89.0985,6.4229e-05,6.73e-06,0.0,0 STARLINK-3073,1 49135U 21082F   24061.85727095  .00000673  00000-0  64229-4 0  9994,2 49135  70.0007 314.7744 0002867 270.9846  89.0985 14.98330145136453,6950.192,96.107,574.05,570.065,0.0
49135.0,STARLINK-3073,PAYLOAD,2024-03-01 22:10:36,14.98329651,0.0002876,70.0006,314.606,270.9239,89.1591,5.8538e-05,6.06e-06,0.0,0 STARLINK-3073,1 49135U 21082F   24061.92403141  .00000606  00000-0  58538-4 0  9997,2 49135  70.0006 314.6060 0002876 270.9239  89.1591 14.98329651136463,6950.194,96.107,574.058,570.06,0.0
49135.0,STARLINK-3073,PAYLOAD,2024-03-02 02:59:00,14.98332882,0.0002858,70.0005,314.1012,270.2164,89.8667,7.3911e-05,7.89e-06,0.0,0 STARLINK-3073,1 49135U 21082F   24062.12430863  .00000789  00000-0  73911-4 0  9995,2 49135  70.0005 314.1012 0002858 270.2164  89.8667 14.98332882136498,6950.184,96.107,574.035,570.063,0.0
49135.0,STARLINK-3073,PAYLOAD,2024-03-02 20:36:29,14.98328171,0.0002742,70.0006,312.2497,270.1902,89.8942,-6.671e-05,-8.89e-06,0.0,0 STARLINK-3073,1 49135U 21082F   24062.85867591 -.00000889  00000-0 -66710-4 0  9999,2 49135  70.0006 312.2497 0002742 270.1902  89.8942 14.98328171136601,6950.199,96.107,573.969,570.158,0.0
49135.0,STARLINK-3073,PAYLOAD,2024-03-02 22:12:37,14.98327236,0.0002747,70.0005,312.0814,270.1559,89.9285,-7.5406e-05,-9.92e-06,0.0,0 STARLINK-3073,1 49135U 21082F   24062.92543676 -.00000992  00000-0 -75406-4 0  9999,2 49135  70.0005 312.0814 0002747 270.1559  89.9285 14.98327236136617,6950.201,96.107,573.976,570.157,0.0
49135.0,STARLINK-3073,PAYLOAD,2024-03-03 09:25:33,14.9832999,0.0002738,70.0004,310.9029,271.0738,89.0108,-1.0456e-05,-2.18e-06,0.0,0 STARLINK-3073,1 49135U 21082F   24063.39275382 -.00000218  00000-0 -10456-4 0  9992,2 49135  70.0004 310.9029 0002738 271.0738  89.0108 14.98329990136681,6950.193,96.107,573.961,570.155,0.0
49135.0,STARLINK-3073,PAYLOAD,2024-03-03 20:38:29,14.98334216,0.0002769,70.0,309.7241,268.6596,91.4246,4.4685e-05,4.4e-06,0.0,0 STARLINK-3073,1 49135U 21082F   24063.86006869  .00000440  00000-0  44685-4 0  9992,2 49135  70.0000 309.7241 0002769 268.6596  91.4246 14.98334216136752,6950.18,96.107,573.969,570.12,0.0
49135.0,STARLINK-3073,PAYLOAD,2024-03-04 01:26:53,14.98339114,0.0002675,70.0001,309.2192,267.8805,92.2048,0.00010465,1.156e-05,0.0,0 STARLINK-3073,1 49135U 21082F   24064.06034342  .00001156  00000-0  10465-3 0  9995,2 49135  70.0001 309.2192 0002675 267.8805  92.2048 14.98339114136787,6950.165,96.106,573.889,570.171,0.0
